H1 CPF 01  gfz 2022 03 12 13  5712 tandemx   
H2 1003001  6202 36605    2022 03 12 12 59 42 2022 03 17 00 00 42   120 1 1  0 0 0
H9
10 0 59653   2862.000000  0    -296315.019  -4719134.622  -5017600.605
10 0 59653   2982.000000  0    -552299.961  -5310625.692  -4361208.267
10 0 59653   3102.000000  0    -808182.601  -5805274.252  -3628425.703
10 0 59653   3222.000000  0   -1057726.576  -6194422.004  -2832018.333
10 0 59653   3342.000000  0   -1294662.362  -6471344.473  -1985899.122
10 0 59653   3462.000000  0   -1512833.807  -6631380.637  -1104887.717
10 0 59653   3582.000000  0   -1706345.223  -6672023.086   -204448.467
10 0 59653   3702.000000  0   -1869705.640  -6592965.685    699586.538
10 0 59653   3822.000000  0   -1997966.768  -6396107.249   1591303.540
10 0 59653   3942.000000  0   -2086850.638  -6085510.613   2454996.375
10 0 59653   4062.000000  0   -2132863.229  -5667317.542   3275452.317
10 0 59653   4182.000000  0   -2133390.945  -5149621.790   4038227.243
10 0 59653   4302.000000  0   -2086777.836  -4542304.753   4729904.232
10 0 59653   4422.000000  0   -1992382.378  -3856838.704   5338331.085
10 0 59653   4542.000000  0   -1850612.684  -3106060.737   5852833.797
10 0 59653   4662.000000  0   -1662937.845  -2303923.241   6264399.541
10 0 59653   4782.000000  0   -1431876.286  -1465229.343   6565828.374
10 0 59653   4902.000000  0   -1160962.726   -605356.130   6751853.821
10 0 59653   5022.000000  0    -854694.467    260029.643   6819228.430
10 0 59653   5142.000000  0    -518457.003   1115256.060   6766776.900
10 0 59653   5262.000000  0    -158429.125   1944929.597   6595415.926
10 0 59653   5382.000000  0     218530.561   2734212.093   6308139.018
10 0 59653   5502.000000  0     605013.421   3469086.130   5909967.132
10 0 59653   5622.000000  0     993204.591   4136606.298   5407866.342
10 0 59653   5742.000000  0    1375039.102   4725131.633   4810631.736
10 0 59653   5862.000000  0    1742367.546   5224535.472   4128738.679
10 0 59653   5982.000000  0    2087127.956   5626386.665   3374163.860
10 0 59653   6102.000000  0    2401521.533   5924101.950   2560178.434
10 0 59653   6222.000000  0    2678185.385   6113063.462   1701111.525
10 0 59653   6342.000000  0    2910360.727   6190695.566    812092.467
10 0 59653   6462.000000  0    3092049.117   6156500.100    -91222.885
10 0 59653   6582.000000  0    3218155.261   6012050.626   -992935.598
10 0 59653   6702.000000  0    3284612.430   5760944.521  -1877191.850
10 0 59653   6822.000000  0    3288486.790   5408715.349  -2728468.962
10 0 59653   6942.000000  0    3228058.497   4962706.833  -3531854.175
10 0 59653   7062.000000  0    3102876.440   4431911.551  -4273308.598
10 0 59653   7182.000000  0    2913786.770   3826781.226  -4939910.640
10 0 59653   7302.000000  0    2662934.724   3159013.069  -5520076.263
10 0 59653   7422.000000  0    2353741.365   2441316.978  -6003752.077
10 0 59653   7542.000000  0    1990854.714   1687169.167  -6382579.086
10 0 59653   7662.000000  0    1580077.573    910557.941  -6650024.843
10 0 59653   7782.000000  0    1128274.631    125726.781  -6801485.183
10 0 59653   7902.000000  0     643257.786   -653082.362  -6834356.122
10 0 59653   8022.000000  0     133652.378  -1411882.221  -6748072.389
10 0 59653   8142.000000  0    -391251.980  -2137183.949  -6544114.995
10 0 59653   8262.000000  0    -921666.013  -2816230.804  -6225990.259
10 0 59653   8382.000000  0   -1447478.984  -3437219.988  -5799176.097
10 0 59653   8502.000000  0   -1958446.402  -3989506.456  -5271037.072
10 0 59653   8622.000000  0   -2444386.124  -4463788.289  -4650709.845
10 0 59653   8742.000000  0   -2895380.130  -4852270.029  -3948956.496
10 0 59653   8862.000000  0   -3301976.662  -5148798.461  -3177986.988
10 0 59653   8982.000000  0   -3655388.670  -5348968.906  -2351254.228
10 0 59653   9102.000000  0   -3947684.952  -5450199.248  -1483223.331
10 0 59653   9222.000000  0   -4171968.558  -5451768.798   -589118.254
10 0 59653   9342.000000  0   -4322537.174  -5354820.294    315349.412
10 0 59653   9462.000000  0   -4395021.328  -5162324.289   1214263.598
10 0 59653   9582.000000  0   -4386496.670  -4879005.909   2091793.263
10 0 59653   9702.000000  0   -4295566.386  -4511235.250   2932480.489
10 0 59653   9822.000000  0   -4122412.580  -4066885.537   3721520.371
10 0 59653   9942.000000  0   -3868815.465  -3555162.695   4445027.926
10 0 59653  10062.000000  0   -3538139.063  -2986409.574   5090285.801
10 0 59653  10182.000000  0   -3135285.204  -2371891.464   5645966.598
10 0 59653  10302.000000  0   -2666617.524  -1723569.203   6102328.668
10 0 59653  10422.000000  0   -2139856.939  -1053863.154   6451383.304
10 0 59653  10542.000000  0   -1563949.839   -375411.383   6687030.051
10 0 59653  10662.000000  0    -948911.675    299170.240   6805155.234
10 0 59653  10782.000000  0    -305652.547    957520.921   6803698.531
10 0 59653  10902.000000  0     354216.071   1587760.963   6682687.255
10 0 59653  11022.000000  0    1018590.639   2178706.182   6444236.032
10 0 59653  11142.000000  0    1675097.037   2720066.316   6092511.261
10 0 59653  11262.000000  0    2311320.151   3202624.814   5633663.124
10 0 59653  11382.000000  0    2915039.363   3618399.069   5075724.953
10 0 59653  11502.000000  0    3474466.411   3960777.060   4428477.778
10 0 59653  11622.000000  0    3978477.596   4224625.677   3703282.921
10 0 59653  11742.000000  0    4416839.524   4406373.366   2912888.258
10 0 59653  11862.000000  0    4780423.724   4504060.148   2071201.715
10 0 59653  11982.000000  0    5061398.706   4517355.316   1193044.032
10 0 59653  12102.000000  0    5253401.691   4447542.010    293882.194
10 0 59653  12222.000000  0    5351680.732   4297468.035   -610452.282
10 0 59653  12342.000000  0    5353203.443   4071464.412  -1504051.028
10 0 59653  12462.000000  0    5256731.949   3775234.395  -2371216.561
10 0 59653  12582.000000  0    5062861.565   3415715.266  -3196744.211
10 0 59653  12702.000000  0    4774022.513   3000918.275  -3966192.050
10 0 59653  12822.000000  0    4394445.228   2539750.509  -4666134.605
10 0 59653  12942.000000  0    3930090.311   2041821.371  -5284393.700
10 0 59653  13062.000000  0    3388546.502   1517240.987  -5810242.713
10 0 59653  13182.000000  0    2778898.965    976415.091  -6234583.195
10 0 59653  13302.000000  0    2111570.611    429839.976  -6550090.832
10 0 59653  13422.000000  0    1398141.709   -112097.783  -6751329.714
10 0 59653  13542.000000  0     651150.464   -639314.466  -6834837.715
10 0 59653  13662.000000  0    -116125.530  -1142212.754  -6799179.067
10 0 59653  13782.000000  0    -889899.397  -1611851.194  -6644964.914
10 0 59653  13902.000000  0   -1656116.326  -2040098.971  -6374845.035
10 0 59653  14022.000000  0   -2400703.290  -2419774.681  -5993467.245
10 0 59653  14142.000000  0   -3109821.856  -2744765.581  -5507405.639
10 0 59653  14262.000000  0   -3770122.851  -3010127.509  -4925059.617
10 0 59653  14382.000000  0   -4368999.522  -3212163.350  -4256520.259
10 0 59653  14502.000000  0   -4894831.819  -3348476.816  -3513405.671
10 0 59653  14622.000000  0   -5337218.329  -3418001.199  -2708667.826
10 0 59653  14742.000000  0   -5687190.384  -3421001.882  -1856371.898
10 0 59653  14862.000000  0   -5937401.983  -3359051.541   -971451.662
10 0 59653  14982.000000  0   -6082291.178  -3234978.599    -69445.617
10 0 59653  15102.000000  0   -6118208.155  -3052789.397    833781.214
10 0 59653  15222.000000  0   -6043506.383  -2817566.159   1722325.061
10 0 59653  15342.000000  0   -5858591.615  -2535341.974   2580533.715
10 0 59653  15462.000000  0   -5565929.292  -2212957.034   3393289.962
10 0 59653  15582.000000  0   -5170011.667  -1857900.474   4146285.808
10 0 59653  15702.000000  0   -4677281.467  -1478139.627   4826279.140
10 0 59653  15822.000000  0   -4096018.743  -1081943.816   5421326.075
10 0 59653  15942.000000  0   -3436194.480   -677706.812   5920988.872
10 0 59653  16062.000000  0   -2709291.787   -273769.926   6316516.353
10 0 59653  16182.000000  0   -1928098.096    121749.408   6600991.703
10 0 59653  16302.000000  0   -1106474.855    501118.513   6769446.235
10 0 59653  16422.000000  0    -259109.635    857138.819   6818940.746
10 0 59653  16542.000000  0     598746.486   1183281.403   6748613.235
10 0 59653  16662.000000  0    1451552.516   1473806.527   6559693.083
10 0 59653  16782.000000  0    2283758.355   1723865.033   6255480.518
10 0 59653  16902.000000  0    3080087.740   1929579.403   5841292.768
10 0 59653  17022.000000  0    3825820.863   2088104.268   5324377.048
10 0 59653  17142.000000  0    4507069.739   2197664.863   4713789.074
10 0 59653  17262.000000  0    5111041.799   2257573.944   4020241.294
10 0 59653  17382.000000  0    5626290.374   2268225.722   3255919.544
10 0 59653  17502.000000  0    6042939.951   2231065.117   2434267.394
10 0 59653  17622.000000  0    6352883.289   2148535.751   1569749.668
10 0 59653  17742.000000  0    6549947.660   2024005.793    677592.468
10 0 59653  17862.000000  0    6630022.101   1861673.436   -226492.475
10 0 59653  17982.000000  0    6591143.205   1666455.960  -1126593.993
10 0 59653  18102.000000  0    6433536.855   1443863.142  -2006889.247
10 0 59653  18222.000000  0    6159619.089   1199859.031  -2851928.783
10 0 59653  18342.000000  0    5773950.886    940716.068  -3646913.951
10 0 59653  18462.000000  0    5283150.509    672865.694  -4377958.025
10 0 59653  18582.000000  0    4695766.669    402748.944  -5032326.865
10 0 59653  18702.000000  0    4022117.386    136670.633  -5598654.009
10 0 59653  18822.000000  0    3274099.196   -119339.110  -6067129.056
10 0 59653  18942.000000  0    2464969.648   -359653.620  -6429657.804
10 0 59653  19062.000000  0    1609108.152   -579166.708  -6679989.795
10 0 59653  19182.000000  0     721761.842   -773395.751  -6813815.829
10 0 59653  19302.000000  0    -181223.372   -938568.941  -6828834.742
99
